#cP2024  2 13 18  0  0.00000000     577 d+D   IGS20 EXT AIUB
## 2301 237600.00000000   300.00000000 60353 0.7500000000000
+   78   G01G02G03G04G05G06G07G08G09G10G11G12G13G14G15G16G17
+        G18G19G20G21G22G23G24G25G26G27G28G29G30G31G32R01R02
+        R03R04R05R07R08R09R11R12R13R14R15R16R17R18R19R20R21
+        R22R24E02E03E04E05E07E08E09E10E11E12E13E14E15E18E19
+        E21E24E25E26E27E30E31E33E34E36  0  0  0  0  0  0  0
++         5  7  6  6  7  6  7  6  5  6  7  7  6  6  7  7  7
++         7  7  7  7  7  7  6  6  6  6  6  7  6  7  6  9  7
++         8  8  8  8  8  6  7  6  7  6  6  7  8  7  9 10  8
++         7  8  6  7  7  7  7  6  7  7  6  7  6  6  7  7  6
++         7  7  5  7  5  8  6  7  7  7  0  0  0  0  0  0  0
%c M  cc GPS ccc cccc cccc cccc cccc ccccc ccccc ccccc ccccc
%c cc cc ccc ccc cccc cccc cccc cccc ccccc ccccc ccccc ccccc
%f  1.2500000  1.025000000  0.00000000000  0.000000000000000
%f  0.0000000  0.000000000  0.00000000000  0.000000000000000
%i    0    0    0    0      0      0      0      0         0
%i    0    0    0    0      0      0      0      0         0
/* Center for Orbit Determination in Europe (CODE)          
/* Ultra-rapid GRE orbits starting year-day 24044 18 hour   
/* Observed/predicted: 24/24 hours (data used up to 045R)   
/* PCV:IGS20      OL/AL:FES2014b NONE     YN ORB:CoN CLK:BRD
*  2024  2 14  3 55  0.00000000
PG01   4438.967463  14028.983080 -22455.246381    169.467600
PG02  -4185.410105  16591.195495 -19750.372943   -485.766401
PG03   7835.339007  20527.934841 -15151.781516    191.841041
PG04   -816.501914  25407.629048   7464.076424    291.179781
PG05   3934.980566 -15404.560295  21086.566686   -161.738554
PG06  25734.794751  -5597.962441  -3792.815287    407.884978
PG07  17120.562178   8655.025886  19050.693684    -61.461593
PG08  -5416.000857  25719.476399   1376.375243   -166.924707
PG09   9150.205841  17837.615169  17312.649751     91.477757
PG10 -21955.486957  -8291.350656 -12538.407007      0.349224
PG11  22378.689952 -11916.663633   7858.358769   -575.094184
PG12  -5722.440805 -21123.773425 -15384.155315   -477.781329
PG13  13508.419894 -21113.727110   8235.982446    625.344563
PG14  22152.999109  11402.963692  -9445.940799    325.196536
PG15   2166.563465 -26312.538385   1034.743935    127.491522
PG16 -11128.710802  10099.582688  21568.674384   -363.106386
PG17  14093.080753   4562.844001 -21619.042742    717.062306
PG18 -17835.155170  -7440.703235  18316.619545   -555.115127
PG19  16310.283267  -5080.654656 -20426.509978    440.383092
PG20  15792.280373  -7130.772764  20147.439664    387.579249
PG21  -9154.197541  17084.267409 -17209.848121    135.007680
PG22  20227.067480   5528.258393 -15698.662237     31.565944
PG23 -20939.581509 -16461.761568  -1221.797298    155.753272
PG24   5466.403871 -17874.416429 -19130.517551   -431.373553
PG25 -15844.231424 -20372.403563  -7185.165177    488.517734
PG26 -19291.175319   2273.452055  18117.948187    190.432202
PG27 -12655.246601  19309.941436  12459.600266     -3.847225
PG28 -25323.566813   4396.996290  -6703.397062   -130.382679
PG29  -6209.016837 -19619.895223  16684.392747   -607.019706
PG30  24174.161690    876.114208  11398.301765   -432.848727
PG31 -24825.731944   9628.947556   2645.306324   -227.758867
PG32 -15210.860305   -568.735033 -21551.773963   -611.506553
PR01 -11265.748994   -636.322043 -22870.151333     77.115897
PR02  -5610.731842  16941.387994 -18145.388348    -22.464460
PR03   3267.166835  25089.061781  -2935.782801     94.496449
PR04   9763.683881  19337.268615  13489.963996    223.366253
PR05  11221.748513   3198.149660  22695.227840    126.887982
PR07  -3606.634924 -25188.352636   2197.442193     75.778928
PR08  -9988.590543 -19168.663722 -13509.194781    -74.387789
PR09  13147.089205  -6664.478724 -20826.454760    169.890772
PR11 -19359.476762 -12192.049903 -11258.992599     34.408827
PR12 -23868.946882  -4186.980677   8006.816766     36.723394
PR13 -15193.863083   5004.535523  19849.223904    -44.336915
PR14   4902.173857  12722.396313  21566.369153     26.063341
PR15  20188.317136  12053.597091   9906.063446     82.211833
PR16  23947.741119   4285.125426  -7720.637265     23.273373
PR17  -6655.049881  16534.294138 -18252.001111     61.080633
PR18   8001.479560   6948.225200 -23186.464295    127.286417
PR19  18141.753681  -4274.393020 -17413.163995   -265.736053
PR20  19553.795932 -16291.990578   2059.250228   -108.229452
PR21   6543.088802 -16310.831517  18482.510692    -76.809433
PR22  -8914.307851  -6783.878453  22944.073153    108.007460
PR24 -18613.916280  17254.134363  -2571.351979    -43.837537
PE02  10069.043587 -13552.159516 -24325.764746    103.238886
PE03  12855.667599 -24536.906402  10419.894045    -93.692840
PE04   -285.017302  28401.331471   8341.090171   -326.820172
PE05  17738.297986  -6422.932243  22814.622155   4719.852487
PE07 -12074.052257 -15975.247274 -21789.437678   -103.664934
PE08    816.196470 -28560.170892  -7717.287566   -223.566478
PE09  11895.308321  16074.169710  21831.173590   -335.351784
PE10  10088.835220  13268.360069 -24461.641735   -601.787823
PE11  20277.361691   7354.736159 -20284.186996   3247.732243
PE12   -428.065774  16690.650094 -24436.619537   -905.509934
PE13 -19672.926225  -7726.093820  20726.102292    -20.177601
PE14  18818.440907  -6806.905044 -19481.464006 999999.999999
PE15   1099.516384 -16764.392195  24383.001070    -85.693662
PE18 -14923.801663  24104.939299   9276.615080 999999.999999
PE19 -13920.674838  23006.901991 -12357.982644   -618.913229
PE21 -22694.869899  -3357.836003  18698.329454   -578.916001
PE24  22391.540172  19276.052467  -1580.255017   -597.134029
PE25  22834.184505   3704.921857 -18465.658194      0.863057
PE26 -28639.049703   6057.423249   4380.528503    368.198910
PE27 -22602.426457 -19027.122229   1921.814312   -274.215944
PE30  -8879.147650 -23324.630222 -15946.636372      4.900418
PE31   9183.511398  23289.121987  15786.545821    -15.955025
PE33 -21347.055681  15661.463436 -13227.148041      7.560272
PE34  20883.588868 -15884.510831  13702.179883    -94.521044
PE36  28621.179190  -5692.732235  -5000.248964   -185.657983
EOF
